IDEFIX & ARIANE 42P R/B 
1 27422U 02021B   25353.43574108  .00000201  00000+0  92979-4 0  9994
2 27422  98.5795 288.0399 0012900  65.6667 294.5861 14.30954868232548
AQUA                    
1 27424U 02022A   25353.80385887  .00000725  00000+0  15510-3 0  9998
2 27424  98.4046 314.7980 0001349 112.3467 286.6091 14.61824191257064
CZ-4B R/B               
1 27432U 02024C   25353.14530247  .00000045  00000+0  46456-4 0  9997
2 27432  98.8990  41.8945 0049216 251.3537 129.9043 14.14529169217855
MIDORI II (ADEOS-II)    
1 27597U 02056A   25353.43623037  .00000178  00000+0  87748-4 0  9992
2 27597  98.7646 306.4279 0000537 150.4807 209.6405 14.29209903198837
H-2A R/B                
1 27601U 02056E   25353.46064259  .00000265  00000+0  10742-3 0  9992
2 27601  98.3075 311.9500 0071193  41.4111  72.6501 14.33681545202614
CZ-4B R/B               
1 28059U 03049C   25353.67923647  .00000289  00000+0  77873-4 0  9996
2 28059  98.6791 340.5054 0049280 115.2794 245.3520 14.54915552174968
CZ-2C R/B               
1 28222U 04012C   25353.81448628  .00028264  00000+0  40446-3 0  9994
2 28222  97.7414  47.0228 0016497 242.7111 117.2463 15.56019958191822
SL-16 R/B               
1 28353U 04021B   25353.41001580 -.00000098  00000+0 -25995-4 0  9997
2 28353  71.0008  40.9677 0004941 189.0180 171.0854 14.14578815111482
CZ-4B R/B               
1 28415U 04035C   25353.04706086  .00006889  00000+0  25537-3 0  9996
2 28415  97.3596  23.3072 0031543 253.8650 105.9116 15.27470451167590
CZ-2C R/B               
1 28480U 04046B   25353.26970788  .00000162  00000+0  75166-4 0  9998
2 28480  98.1994 268.2417 0140210  33.1154 327.8709 14.26944182 97035
ARIANE 5 R/B            
1 28499U 04049H   25353.72746847  .00000825  00000+0  98132-4 0  9993
2 28499  98.2526 154.2595 0083339 249.9712 109.2515 14.85028014133921
CZ-2D R/B               
1 28738U 05024B   25353.74345823  .00022410  00000+0  35304-3 0  9999
2 28738  97.3622   1.3759 0004369 340.5174  19.5912 15.53572213127348
