CCSDS_OMM_VERS = 2.0
CREATION_DATE  = 
ORIGINATOR     = 

OBJECT_NAME    = IDEFIX & ARIANE 42P R/B
OBJECT_ID      = 2002-021B
CENTER_NAME    = EARTH
REF_FRAME      = TEME
TIME_SYSTEM    = UTC
MEAN_ELEMENT_THEORY = SGP/SGP4

EPOCH          = 2025-12-19T10:27:28.029312
MEAN_MOTION    = 14.30954868
ECCENTRICITY   = .00129
INCLINATION    = 98.5795
RA_OF_ASC_NODE = 288.0399
ARG_OF_PERICENTER = 65.6667
MEAN_ANOMALY   = 294.5861

EPHEMERIS_TYPE = 0
CLASSIFICATION_TYPE = U
NORAD_CAT_ID   = 27422
ELEMENT_SET_NO = 999
REV_AT_EPOCH   = 23254
BSTAR          = .92979E-4
MEAN_MOTION_DOT = .201E-5
MEAN_MOTION_DDOT = 0

CCSDS_OMM_VERS = 2.0
CREATION_DATE  = 
ORIGINATOR     = 

OBJECT_NAME    = AQUA
OBJECT_ID      = 2002-022A
CENTER_NAME    = EARTH
REF_FRAME      = TEME
TIME_SYSTEM    = UTC
MEAN_ELEMENT_THEORY = SGP/SGP4

EPOCH          = 2025-12-19T19:17:33.406368
MEAN_MOTION    = 14.61824191
ECCENTRICITY   = .0001349
INCLINATION    = 98.4046
RA_OF_ASC_NODE = 314.7980
ARG_OF_PERICENTER = 112.3467
MEAN_ANOMALY   = 286.6091

EPHEMERIS_TYPE = 0
CLASSIFICATION_TYPE = U
NORAD_CAT_ID   = 27424
ELEMENT_SET_NO = 999
REV_AT_EPOCH   = 25706
BSTAR          = .1551E-3
MEAN_MOTION_DOT = .725E-5
MEAN_MOTION_DDOT = 0

CCSDS_OMM_VERS = 2.0
CREATION_DATE  = 
ORIGINATOR     = 

OBJECT_NAME    = CZ-4B R/B
OBJECT_ID      = 2002-024C
CENTER_NAME    = EARTH
REF_FRAME      = TEME
TIME_SYSTEM    = UTC
MEAN_ELEMENT_THEORY = SGP/SGP4

EPOCH          = 2025-12-19T03:29:14.133408
MEAN_MOTION    = 14.14529169
ECCENTRICITY   = .00492163
INCLINATION    = 98.8990
RA_OF_ASC_NODE = 41.8945
ARG_OF_PERICENTER = 251.3537
MEAN_ANOMALY   = 129.9043

EPHEMERIS_TYPE = 0
CLASSIFICATION_TYPE = U
NORAD_CAT_ID   = 27432
ELEMENT_SET_NO = 999
REV_AT_EPOCH   = 21785
BSTAR          = .46456249E-4
MEAN_MOTION_DOT = .45E-6
MEAN_MOTION_DDOT = 0

CCSDS_OMM_VERS = 2.0
CREATION_DATE  = 
ORIGINATOR     = 

OBJECT_NAME    = MIDORI II (ADEOS-II)
OBJECT_ID      = 2002-056A
CENTER_NAME    = EARTH
REF_FRAME      = TEME
TIME_SYSTEM    = UTC
MEAN_ELEMENT_THEORY = SGP/SGP4

EPOCH          = 2025-12-19T10:28:10.303968
MEAN_MOTION    = 14.29209903
ECCENTRICITY   = .0000537
INCLINATION    = 98.7646
RA_OF_ASC_NODE = 306.4279
ARG_OF_PERICENTER = 150.4807
MEAN_ANOMALY   = 209.6405

EPHEMERIS_TYPE = 0
CLASSIFICATION_TYPE = U
NORAD_CAT_ID   = 27597
ELEMENT_SET_NO = 999
REV_AT_EPOCH   = 19883
BSTAR          = .87748E-4
MEAN_MOTION_DOT = .178E-5
MEAN_MOTION_DDOT = 0

CCSDS_OMM_VERS = 2.0
CREATION_DATE  = 
ORIGINATOR     = 

OBJECT_NAME    = H-2A R/B
OBJECT_ID      = 2002-056E
CENTER_NAME    = EARTH
REF_FRAME      = TEME
TIME_SYSTEM    = UTC
MEAN_ELEMENT_THEORY = SGP/SGP4

EPOCH          = 2025-12-19T11:03:19.519776
MEAN_MOTION    = 14.33681545
ECCENTRICITY   = .0071193
INCLINATION    = 98.3075
RA_OF_ASC_NODE = 311.9500
ARG_OF_PERICENTER = 41.4111
MEAN_ANOMALY   = 72.6501

EPHEMERIS_TYPE = 0
CLASSIFICATION_TYPE = U
NORAD_CAT_ID   = 27601
ELEMENT_SET_NO = 999
REV_AT_EPOCH   = 20261
BSTAR          = .10742E-3
MEAN_MOTION_DOT = .265E-5
MEAN_MOTION_DDOT = 0

CCSDS_OMM_VERS = 2.0
CREATION_DATE  = 
ORIGINATOR     = 

OBJECT_NAME    = CZ-4B R/B
OBJECT_ID      = 2003-049C
CENTER_NAME    = EARTH
REF_FRAME      = TEME
TIME_SYSTEM    = UTC
MEAN_ELEMENT_THEORY = SGP/SGP4

EPOCH          = 2025-12-19T16:18:06.031008
MEAN_MOTION    = 14.54915552
ECCENTRICITY   = .004928
INCLINATION    = 98.6791
RA_OF_ASC_NODE = 340.5054
ARG_OF_PERICENTER = 115.2794
MEAN_ANOMALY   = 245.3520

EPHEMERIS_TYPE = 0
CLASSIFICATION_TYPE = U
NORAD_CAT_ID   = 28059
ELEMENT_SET_NO = 999
REV_AT_EPOCH   = 17496
BSTAR          = .77873E-4
MEAN_MOTION_DOT = .289E-5
MEAN_MOTION_DDOT = 0

CCSDS_OMM_VERS = 2.0
CREATION_DATE  = 
ORIGINATOR     = 

OBJECT_NAME    = CZ-2C R/B
OBJECT_ID      = 2004-012C
CENTER_NAME    = EARTH
REF_FRAME      = TEME
TIME_SYSTEM    = UTC
MEAN_ELEMENT_THEORY = SGP/SGP4

EPOCH          = 2025-12-19T19:32:51.614592
MEAN_MOTION    = 15.56019958
ECCENTRICITY   = .0016497
INCLINATION    = 97.7414
RA_OF_ASC_NODE = 47.0228
ARG_OF_PERICENTER = 242.7111
MEAN_ANOMALY   = 117.2463

EPHEMERIS_TYPE = 0
CLASSIFICATION_TYPE = U
NORAD_CAT_ID   = 28222
ELEMENT_SET_NO = 999
REV_AT_EPOCH   = 19182
BSTAR          = .40446E-3
MEAN_MOTION_DOT = .28264E-3
MEAN_MOTION_DDOT = 0

CCSDS_OMM_VERS = 2.0
CREATION_DATE  = 
ORIGINATOR     = 

OBJECT_NAME    = SL-16 R/B
OBJECT_ID      = 2004-021B
CENTER_NAME    = EARTH
REF_FRAME      = TEME
TIME_SYSTEM    = UTC
MEAN_ELEMENT_THEORY = SGP/SGP4

EPOCH          = 2025-12-19T09:50:25.365120
MEAN_MOTION    = 14.14578815
ECCENTRICITY   = .0004941
INCLINATION    = 71.0008
RA_OF_ASC_NODE = 40.9677
ARG_OF_PERICENTER = 189.0180
MEAN_ANOMALY   = 171.0854

EPHEMERIS_TYPE = 0
CLASSIFICATION_TYPE = U
NORAD_CAT_ID   = 28353
ELEMENT_SET_NO = 999
REV_AT_EPOCH   = 11148
BSTAR          = -.25995E-4
MEAN_MOTION_DOT = -.98E-6
MEAN_MOTION_DDOT = 0

CCSDS_OMM_VERS = 2.0
CREATION_DATE  = 
ORIGINATOR     = 

OBJECT_NAME    = CZ-4B R/B
OBJECT_ID      = 2004-035C
CENTER_NAME    = EARTH
REF_FRAME      = TEME
TIME_SYSTEM    = UTC
MEAN_ELEMENT_THEORY = SGP/SGP4

EPOCH          = 2025-12-19T01:07:46.058304
MEAN_MOTION    = 15.27470451
ECCENTRICITY   = .00315434
INCLINATION    = 97.3596
RA_OF_ASC_NODE = 23.3072
ARG_OF_PERICENTER = 253.8650
MEAN_ANOMALY   = 105.9116

EPHEMERIS_TYPE = 0
CLASSIFICATION_TYPE = U
NORAD_CAT_ID   = 28415
ELEMENT_SET_NO = 999
REV_AT_EPOCH   = 16759
BSTAR          = .2553687E-3
MEAN_MOTION_DOT = .6889E-4
MEAN_MOTION_DDOT = 0

CCSDS_OMM_VERS = 2.0
CREATION_DATE  = 
ORIGINATOR     = 

OBJECT_NAME    = CZ-2C R/B
OBJECT_ID      = 2004-046B
CENTER_NAME    = EARTH
REF_FRAME      = TEME
TIME_SYSTEM    = UTC
MEAN_ELEMENT_THEORY = SGP/SGP4

EPOCH          = 2025-12-19T06:28:22.760832
MEAN_MOTION    = 14.26944182
ECCENTRICITY   = .014021
INCLINATION    = 98.1994
RA_OF_ASC_NODE = 268.2417
ARG_OF_PERICENTER = 33.1154
MEAN_ANOMALY   = 327.8709

EPHEMERIS_TYPE = 0
CLASSIFICATION_TYPE = U
NORAD_CAT_ID   = 28480
ELEMENT_SET_NO = 999
REV_AT_EPOCH   = 9703
BSTAR          = .75166E-4
MEAN_MOTION_DOT = .162E-5
MEAN_MOTION_DDOT = 0

CCSDS_OMM_VERS = 2.0
CREATION_DATE  = 
ORIGINATOR     = 

OBJECT_NAME    = ARIANE 5 R/B
OBJECT_ID      = 2004-049H
CENTER_NAME    = EARTH
REF_FRAME      = TEME
TIME_SYSTEM    = UTC
MEAN_ELEMENT_THEORY = SGP/SGP4

EPOCH          = 2025-12-19T17:27:33.275808
MEAN_MOTION    = 14.85028014
ECCENTRICITY   = .0083339
INCLINATION    = 98.2526
RA_OF_ASC_NODE = 154.2595
ARG_OF_PERICENTER = 249.9712
MEAN_ANOMALY   = 109.2515

EPHEMERIS_TYPE = 0
CLASSIFICATION_TYPE = U
NORAD_CAT_ID   = 28499
ELEMENT_SET_NO = 999
REV_AT_EPOCH   = 13392
BSTAR          = .98132E-4
MEAN_MOTION_DOT = .825E-5
MEAN_MOTION_DDOT = 0

CCSDS_OMM_VERS = 2.0
CREATION_DATE  = 
ORIGINATOR     = 

OBJECT_NAME    = CZ-2D R/B
OBJECT_ID      = 2005-024B
CENTER_NAME    = EARTH
REF_FRAME      = TEME
TIME_SYSTEM    = UTC
MEAN_ELEMENT_THEORY = SGP/SGP4

EPOCH          = 2025-12-19T17:50:34.791072
MEAN_MOTION    = 15.53572213
ECCENTRICITY   = .0004369
INCLINATION    = 97.3622
RA_OF_ASC_NODE = 1.3759
ARG_OF_PERICENTER = 340.5174
MEAN_ANOMALY   = 19.5912

EPHEMERIS_TYPE = 0
CLASSIFICATION_TYPE = U
NORAD_CAT_ID   = 28738
ELEMENT_SET_NO = 999
REV_AT_EPOCH   = 12734
BSTAR          = .35304E-3
MEAN_MOTION_DOT = .2241E-3
MEAN_MOTION_DDOT = 0

